<?xml version='1.0' encoding='UTF-8'?>
<osm version='0.5' generator='wikivoyage2osm'>
<node id="1" visible="true" lat="13.7607567" lon="100.4914386"><tag k="name" v="Bangkok Tourist Information Office"/><tag k="note" v="note"/><tag k="amenity" v="restaurant"/></node>
<node id="2" visible="true" lat="13.7521861" lon="100.4911753"><tag k="name" v="Grand Palace"/><tag k="note" v="note"/><tag k="amenity" v="restaurant"/></node>
<node id="3" visible="true" lat="13.7511902" lon="100.4925619"><tag k="name" v="Wat Phra Kaew"/><tag k="note" v="note"/><tag k="amenity" v="restaurant"/></node>
<node id="4" visible="true" lat="13.7465055" lon="100.4932986"><tag k="name" v="Wat Pho"/><tag k="note" v="note"/><tag k="amenity" v="restaurant"/></node>
<node id="5" visible="true" lat="13.7436853" lon="100.4889048"><tag k="name" v="Wat Arun"/><tag k="note" v="note"/><tag k="amenity" v="restaurant"/></node>
<node id="6" visible="true" lat="13.749133" lon="100.4973322"><tag k="name" v="Wat Ratchabophit"/><tag k="note" v="note"/><tag k="amenity" v="restaurant"/></node>
<node id="7" visible="true" lat="13.7548477" lon="100.5041813"><tag k="name" v="Wat Ratchanaddaram"/><tag k="note" v="note"/><tag k="amenity" v="restaurant"/></node>
<node id="8" visible="true" lat="13.7495696" lon="100.4955186"><tag k="name" v="Wat Ratchapradit"/><tag k="note" v="note"/><tag k="amenity" v="restaurant"/></node>
<node id="9" visible="true" lat="13.7538951" lon="100.5065932"><tag k="name" v="Wat Saket and the Golden Mount"/><tag k="note" v="note"/><tag k="amenity" v="restaurant"/></node>
<node id="10" visible="true" lat="13.7516399" lon="100.5012099"><tag k="name" v="Wat Suthat and the Giant Swing"/><tag k="note" v="note"/><tag k="amenity" v="restaurant"/></node>
<node id="11" visible="true" lat="13.753394" lon="100.504257"><tag k="name" v="Wat Thep Thida Ram"/><tag k="note" v="note"/><tag k="amenity" v="restaurant"/></node>
<node id="12" visible="true" lat="13.758274" lon="100.491149"><tag k="name" v="Front Palace"/><tag k="note" v="note"/><tag k="amenity" v="restaurant"/></node>
<node id="13" visible="true" lat="13.7530093" lon="100.4897624"><tag k="name" v="Tha Phra Palace"/><tag k="note" v="note"/><tag k="amenity" v="restaurant"/></node>
<node id="14" visible="true" lat="13.7485787" lon="100.5034705"><tag k="name" v="Corrections Museum"/><tag k="note" v="note"/><tag k="amenity" v="restaurant"/></node>
<node id="15" visible="true" lat="13.7561102" lon="100.5064384"><tag k="name" v="King Prajadhipok Museum"/><tag k="note" v="note"/><tag k="amenity" v="restaurant"/></node>
<node id="16" visible="true" lat="13.7441334" lon="100.4941281"><tag k="name" v="Museum of Siam"/><tag k="note" v="note"/><tag k="amenity" v="restaurant"/></node>
<node id="17" visible="true" lat="13.757826" lon="100.492307"><tag k="name" v="National Museum"/><tag k="note" v="note"/><tag k="amenity" v="restaurant"/></node>
<node id="18" visible="true" lat="13.752778" lon="100.490833"><tag k="name" v="Silpa Bhirasri National Museum"/><tag k="note" v="note"/><tag k="amenity" v="restaurant"/></node>
<node id="19" visible="true" lat="13.7528119" lon="100.4899514"><tag k="name" v="Art Centre Silpakorn University"/><tag k="note" v="note"/><tag k="amenity" v="restaurant"/></node>
<node id="20" visible="true" lat="13.7589655" lon="100.4937567"><tag k="name" v="National Gallery"/><tag k="note" v="note"/><tag k="amenity" v="restaurant"/></node>
<node id="21" visible="true" lat="13.7565887" lon="100.5051198"><tag k="name" v="The Queen's Gallery"/><tag k="note" v="note"/><tag k="amenity" v="restaurant"/></node>
<node id="22" visible="true" lat="13.746774" lon="100.490172"><tag k="name" v="Nagaraphirom Park"/><tag k="note" v="note"/><tag k="amenity" v="restaurant"/></node>
<node id="23" visible="true" lat="13.748858" lon="100.502649"><tag k="name" v="Rommaninat Park"/><tag k="note" v="note"/><tag k="amenity" v="restaurant"/></node>
<node id="24" visible="true" lat="13.755" lon="100.493056"><tag k="name" v="Sanam Luang"/><tag k="note" v="note"/><tag k="amenity" v="restaurant"/></node>
<node id="25" visible="true" lat="13.748202" lon="100.495332"><tag k="name" v="Saranrom Park"/><tag k="note" v="note"/><tag k="amenity" v="restaurant"/></node>
<node id="26" visible="true" lat="13.7567706" lon="100.4895466"><tag k="name" v="Bodhi Court"/><tag k="note" v="note"/><tag k="amenity" v="restaurant"/></node>
<node id="27" visible="true" lat="13.7525639" lon="100.4940275"><tag k="name" v="City Pillar Shrine"/><tag k="note" v="note"/><tag k="amenity" v="restaurant"/></node>
<node id="28" visible="true" lat="13.755359" lon="100.504968"><tag k="name" v="King Rama III Memorial"/><tag k="note" v="note"/><tag k="amenity" v="restaurant"/></node>
<node id="29" visible="true" lat="13.756567" lon="100.494799"><tag k="name" v="Mae Toranee Statue"/><tag k="note" v="note"/><tag k="amenity" v="restaurant"/></node>
<node id="30" visible="true" lat="13.755632" lon="100.505514"><tag k="name" v="Mahakan Fort"/><tag k="note" v="note"/><tag k="amenity" v="restaurant"/></node>
<node id="31" visible="true" lat="13.758206" lon="100.493289"><tag k="name" v="Monument to the Expeditionary Force"/><tag k="note" v="note"/><tag k="amenity" v="restaurant"/></node>
<node id="32" visible="true" lat="13.749791" lon="100.496234"><tag k="name" v="Pig Memorial"/><tag k="note" v="note"/><tag k="amenity" v="restaurant"/></node>
<node id="33" visible="true" lat="13.7588242" lon="100.4921753"><tag k="name" v="National Theatre"/><tag k="note" v="note"/><tag k="amenity" v="restaurant"/></node>
<node id="34" visible="true" lat="13.7609595" lon="100.5087534"><tag k="name" v="Ratchadamnoen Stadium"/><tag k="note" v="note"/><tag k="amenity" v="restaurant"/></node>
<node id="36" visible="true" lat="13.755221" lon="100.489936"><tag k="name" v="The International Buddhist Meditation Centre"/><tag k="note" v="note"/><tag k="amenity" v="restaurant"/></node>
<node id="37" visible="true" lat="13.74419" lon="100.49206"><tag k="name" v="Wat Po Thai Traditional Massage School"/><tag k="note" v="note"/><tag k="amenity" v="restaurant"/></node>
<node id="38" visible="true" lat="13.756101" lon="100.488848"><tag k="name" v="Amulet Market at Wat Mahathat"/><tag k="note" v="note"/><tag k="amenity" v="restaurant"/></node>
<node id="39" visible="true" lat="13.7544329" lon="100.504491"><tag k="name" v="Amulet Market at Wat Ratchanaddaram"/><tag k="note" v="note"/><tag k="amenity" v="restaurant"/></node>
<node id="40" visible="true" lat="13.751948" lon="100.50294"><tag k="name" v="Bamrung Muang Stores"/><tag k="note" v="note"/><tag k="amenity" v="restaurant"/></node>
<node id="41" visible="true" lat="13.751003" lon="100.50566"><tag k="name" v="Monk Bowl Village"/><tag k="note" v="note"/><tag k="amenity" v="restaurant"/></node>
<node id="42" visible="true" lat="13.753642" lon="100.515941"><tag k="name" v="Bobae Market"/><tag k="note" v="note"/><tag k="amenity" v="restaurant"/></node>
<node id="43" visible="true" lat="13.753772" lon="100.50589"><tag k="name" v="Carpentry and Wood Stores"/><tag k="note" v="note"/><tag k="amenity" v="restaurant"/></node>
<node id="44" visible="true" lat="13.756341" lon="100.495116"><tag k="name" v="Khlong Lot Night Market"/><tag k="note" v="note"/><tag k="amenity" v="restaurant"/></node>
<node id="45" visible="true" lat="13.752066" lon="100.49631"><tag k="name" v="Lang Krasuang Market"/><tag k="note" v="note"/><tag k="amenity" v="restaurant"/></node>
<node id="46" visible="true" lat="13.756427" lon="100.489218"><tag k="name" v="Phra Chan Market"/><tag k="note" v="note"/><tag k="amenity" v="restaurant"/></node>
<node id="47" visible="true" lat="13.752899" lon="100.48947"><tag k="name" v="Elle Tha Pra Chan"/><tag k="note" v="note"/><tag k="amenity" v="restaurant"/></node>
<node id="48" visible="true" lat="13.754572" lon="100.488727"><tag k="name" v="Fisherman's Seafood"/><tag k="note" v="note"/><tag k="amenity" v="restaurant"/></node>
<node id="49" visible="true" lat="13.752092" lon="100.488429"><tag k="name" v="Krua Khun Kung"/><tag k="note" v="note"/><tag k="amenity" v="restaurant"/></node>
<node id="50" visible="true" lat="13.754139" lon="100.501159"><tag k="name" v="Mont Nomsod"/><tag k="note" v="note"/><tag k="amenity" v="restaurant"/></node>
<node id="51" visible="true" lat="13.759532" lon="100.512422"><tag k="name" v="Nang Loeng Market"/><tag k="note" v="note"/><tag k="amenity" v="restaurant"/></node>
<node id="52" visible="true" lat="13.752818" lon="100.50479"><tag k="name" v="Thip Samai"/><tag k="note" v="note"/><tag k="amenity" v="restaurant"/></node>
<node id="53" visible="true" lat="13.744846" lon="100.491001"><tag k="name" v="Amorosa Bar and The Deck"/><tag k="note" v="note"/><tag k="amenity" v="restaurant"/></node>
<node id="54" visible="true" lat="13.752456" lon="100.49043"><tag k="name" v="Krisa"/><tag k="note" v="note"/><tag k="amenity" v="restaurant"/></node>
<node id="55" visible="true" lat="13.752443" lon="100.490572"><tag k="name" v="Na Phra Lan CafÃ©"/><tag k="note" v="note"/><tag k="amenity" v="restaurant"/></node>
<node id="56" visible="true" lat="13.74617" lon="100.491267"><tag k="name" v="Rub Aroon"/><tag k="note" v="note"/><tag k="amenity" v="restaurant"/></node>
<node id="57" visible="true" lat="13.744771" lon="100.491235"><tag k="name" v="Arun Residence"/><tag k="note" v="note"/><tag k="amenity" v="restaurant"/></node>
<node id="58" visible="true" lat="13.742983" lon="100.493448"><tag k="name" v="Aurum"/><tag k="note" v="note"/><tag k="amenity" v="restaurant"/></node>
<node id="59" visible="true" lat="13.7549839" lon="100.4973526"><tag k="name" v="Boonsiri Place"/><tag k="note" v="note"/><tag k="amenity" v="restaurant"/></node>
<node id="60" visible="true" lat="13.743713" lon="100.492681"><tag k="name" v="Chakrabongse Villas"/><tag k="note" v="note"/><tag k="amenity" v="restaurant"/></node>
<node id="61" visible="true" lat="13.752303" lon="100.50449"><tag k="name" v="Niras Bankoc Hostel  Coffee"/><tag k="note" v="note"/><tag k="amenity" v="restaurant"/></node>
</osm>
